NORAD_CAT_ID,OBJECT_NAME,OBJECT_TYPE,EPOCH,MEAN_MOTION,ECCENTRICITY,INCLINATION,RA_OF_ASC_NODE,ARG_OF_PERICENTER,MEAN_ANOMALY,BSTAR,MEAN_MOTION_DOT,MEAN_MOTION_DDOT,TLE_LINE0,TLE_LINE1,TLE_LINE2,SEMIMAJOR_AXIS,PERIOD,APOGEE,PERIGEE,DECAYED
49431.0,STARLINK-3153,PAYLOAD,2024-03-05 20:13:41,15.08832676,0.0001288,53.2158,283.7137,80.1609,279.9528,-5.6483e-05,-1.186e-05,0.0,0 STARLINK-3153,1 49431U 21104Z   24065.84284399 -.00001186  00000-0 -56483-4 0  9991,2 49431  53.2158 283.7137 0001288  80.1609 279.9528 15.08832676128921,6917.903,95.438,540.659,538.877,0.0
49431.0,STARLINK-3153,PAYLOAD,2024-03-06 13:42:55,15.08836611,8.04e-05,53.217,280.4461,93.3664,266.742,4.0454e-05,3.56e-06,0.0,0 STARLINK-3153,1 49431U 21104Z   24066.57147925  .00000356  00000-0  40454-4 0  9992,2 49431  53.2170 280.4461 0000804  93.3664 266.7420 15.08836611127959,6917.891,95.438,540.312,539.2,0.0
49431.0,STARLINK-3153,PAYLOAD,2024-03-06 20:04:28,15.08846789,0.0001321,53.2165,279.2573,92.9615,267.1528,3.1574e-05,2.15e-06,0.0,0 STARLINK-3153,1 49431U 21104Z   24066.83643533  .00000215  00000-0  31574-4 0  9994,2 49431  53.2165 279.2573 0001321  92.9615 267.1528 15.08846789129075,6917.86,95.437,540.638,538.811,0.0
49431.0,STARLINK-3153,PAYLOAD,2024-03-07 07:12:10,15.08839398,0.0001343,53.2158,277.1759,85.2227,274.8919,0.00010177,1.332e-05,0.0,0 STARLINK-3153,1 49431U 21104Z   24067.30011971  .00001332  00000-0  10177-3 0  9998,2 49431  53.2158 277.1759 0001343  85.2227 274.8919 15.08839398128063,6917.882,95.438,540.676,538.818,0.0
49431.0,STARLINK-3153,PAYLOAD,2024-03-08 13:24:30,15.0884384,0.0001408,53.217,271.5245,87.0191,273.0962,5.8654e-05,6.46e-06,0.0,0 STARLINK-3153,1 49431U 21104Z   24068.55868347  .00000646  00000-0  58654-4 0  9993,2 49431  53.2170 271.5245 0001408  87.0191 273.0962 15.08843840129334,6917.869,95.437,540.708,538.76,0.0
49431.0,STARLINK-3153,PAYLOAD,2024-03-08 19:46:02,15.08846669,0.0001285,53.2166,270.335,84.6026,275.5113,8.1647e-05,1.012e-05,0.0,0 STARLINK-3153,1 49431U 21104Z   24068.82363994  .00001012  00000-0  81647-4 0  9997,2 49431  53.2166 270.3350 0001285  84.6026 275.5113 15.08846669128297,6917.86,95.437,540.614,538.836,0.0
49431.0,STARLINK-3153,PAYLOAD,2024-03-09 13:15:17,15.08837356,0.0001006,53.2155,267.0611,113.8093,246.3005,0.00014431,2.01e-05,0.0,0 STARLINK-3153,1 49431U 21104Z   24069.55228067  .00002010  00000-0  14431-3 0  9994,2 49431  53.2155 267.0611 0001006 113.8093 246.3005 15.08837356128400,6917.888,95.438,540.449,539.058,0.0
49431.0,STARLINK-3153,PAYLOAD,2024-03-10 19:27:36,15.08831572,8.17e-05,53.2163,261.414,91.1603,268.9483,0.000255,3.772e-05,0.0,0 STARLINK-3153,1 49431U 21104Z   24070.81084431  .00003772  00000-0  25500-3 0  9995,2 49431  53.2163 261.4140 0000817  91.1603 268.9483 15.08831572129672,6917.906,95.438,540.336,539.206,0.0
49431.0,STARLINK-3153,PAYLOAD,2024-03-10 22:38:22,15.08845982,0.0001136,53.2152,260.8192,81.3006,278.8115,3.1979e-05,2.21e-06,0.0,0 STARLINK-3153,1 49431U 21104Z   24070.94331887  .00000221  00000-0  31979-4 0  9993,2 49431  53.2152 260.8192 0001136  81.3006 278.8115 15.08845982128618,6917.862,95.437,540.513,538.941,0.0
49431.0,STARLINK-3153,PAYLOAD,2024-03-11 22:29:09,15.08847383,0.0001625,53.2141,256.3578,90.3224,269.7955,0.00013751,1.902e-05,0.0,0 STARLINK-3153,1 49431U 21104Z   24071.93691380  .00001902  00000-0  13751-3 0  9994,2 49431  53.2141 256.3578 0001625  90.3224 269.7955 15.08847383128763,6917.858,95.437,540.847,538.599,0.0
49431.0,STARLINK-3153,PAYLOAD,2024-03-13 04:41:30,15.08827422,0.0001805,53.2152,250.7066,83.8601,276.2597,3.9679e-05,3.43e-06,0.0,0 STARLINK-3153,1 49431U 21104Z   24073.19549138  .00000343  00000-0  39679-4 0  9993,2 49431  53.2152 250.7066 0001805  83.8601 276.2597 15.08827422130031,6917.919,95.438,541.033,538.535,0.0
49431.0,STARLINK-3153,PAYLOAD,2024-03-13 20:35:21,15.08830015,0.0002335,53.2161,247.7313,82.0792,278.0466,7.0765e-05,8.38e-06,0.0,0 STARLINK-3153,1 49431U 21104Z   24073.85789170  .00000838  00000-0  70765-4 0  9998,2 49431  53.2161 247.7313 0002335  82.0792 278.0466 15.08830015129050,6917.911,95.438,541.391,538.161,0.0
49431.0,STARLINK-3153,PAYLOAD,2024-03-14 18:50:45,15.08836985,0.0001315,53.218,243.5689,85.5738,274.5404,0.000138,1.909e-05,0.0,0 STARLINK-3153,1 49431U 21104Z   24074.78524550  .00001909  00000-0  13800-3 0  9996,2 49431  53.2180 243.5689 0001315  85.5738 274.5404 15.08836985130277,6917.89,95.438,540.664,538.845,0.0
49431.0,STARLINK-3153,PAYLOAD,2024-03-16 10:35:24,15.08837835,0.0001273,53.2159,236.1353,85.3258,274.788,2.2191e-05,6.5e-07,0.0,0 STARLINK-3153,1 49431U 21104Z   24076.44125026  .00000065  00000-0  22191-4 0  9992,2 49431  53.2159 236.1353 0001273  85.3258 274.7880 15.08837835130520,6917.887,95.438,540.633,538.871,0.0
49431.0,STARLINK-3153,PAYLOAD,2024-03-16 16:56:56,15.08845043,0.0001325,53.2159,234.9468,88.7051,271.4093,9.1992e-05,1.177e-05,0.0,0 STARLINK-3153,1 49431U 21104Z   24076.70620495  .00001177  00000-0  91992-4 0  9991,2 49431  53.2159 234.9468 0001325  88.7051 271.4093 15.08845043130563,6917.865,95.437,540.647,538.813,0.0
49431.0,STARLINK-3153,PAYLOAD,2024-03-17 10:26:10,15.08841485,0.0001395,53.2158,231.6764,91.4311,268.6841,6.0331e-05,6.72e-06,0.0,0 STARLINK-3153,1 49431U 21104Z   24077.43484849  .00000672  00000-0  60331-4 0  9995,2 49431  53.2158 231.6764 0001395  91.4311 268.6841 15.08841485130679,6917.876,95.437,540.706,538.776,0.0
49431.0,STARLINK-3153,PAYLOAD,2024-03-17 13:36:57,15.0884233,0.0001455,53.2171,231.0838,96.3596,263.7561,6.135e-05,6.89e-06,0.0,0 STARLINK-3153,1 49431U 21104Z   24077.56733012  .00000689  00000-0  61350-4 0  9998,2 49431  53.2171 231.0838 0001455  96.3596 263.7561 15.08842330129613,6917.873,95.437,540.745,538.732,0.0
49431.0,STARLINK-3153,PAYLOAD,2024-03-17 15:12:20,15.08842559,0.0001455,53.2171,230.7865,94.4404,265.6754,6.1344e-05,6.89e-06,0.0,0 STARLINK-3153,1 49431U 21104Z   24077.63356991  .00000689  00000-0  61344-4 0  9996,2 49431  53.2171 230.7865 0001455  94.4404 265.6754 15.08842559129625,6917.873,95.437,540.744,538.731,0.0
49431.0,STARLINK-3153,PAYLOAD,2024-03-18 19:49:16,15.08843438,0.000144,53.2171,225.4341,89.6607,270.455,5.293e-05,5.55e-06,0.0,0 STARLINK-3153,1 49431U 21104Z   24078.82588814  .00000555  00000-0  52930-4 0  9992,2 49431  53.2171 225.4341 0001440  89.6607 270.4550 15.08843438130885,6917.87,95.437,540.731,538.739,0.0
49431.0,STARLINK-3153,PAYLOAD,2024-03-19 10:07:45,15.08836456,0.0001603,53.2158,222.7563,92.7784,267.3391,2.4326e-05,9.9e-07,0.0,0 STARLINK-3153,1 49431U 21104Z   24079.42205432  .00000099  00000-0  24326-4 0  9992,2 49431  53.2158 222.7563 0001603  92.7784 267.3391 15.08836456129897,6917.891,95.438,540.865,538.647,0.0
49431.0,STARLINK-3153,PAYLOAD,2024-03-19 13:18:31,15.08841027,0.0001498,53.2186,222.1619,96.8109,263.3053,3.6159e-05,2.88e-06,0.0,0 STARLINK-3153,1 49431U 21104Z   24079.55453076  .00000288  00000-0  36159-4 0  9992,2 49431  53.2186 222.1619 0001498  96.8109 263.3053 15.08841027130996,6917.877,95.437,540.779,538.706,0.0
49431.0,STARLINK-3153,PAYLOAD,2024-03-20 09:58:32,15.08831119,0.0001577,53.2185,218.2965,90.7995,269.3177,7.4637e-05,9e-06,0.0,0 STARLINK-3153,1 49431U 21104Z   24080.41565757  .00000900  00000-0  74637-4 0  9993,2 49431  53.2185 218.2965 0001577  90.7995 269.3177 15.08831119131129,6917.908,95.438,540.863,538.682,0.0
49431.0,STARLINK-3153,PAYLOAD,2024-03-20 13:09:19,15.08832435,0.000176,53.2186,217.7004,87.5792,272.5401,5.0124e-05,5.1e-06,0.0,0 STARLINK-3153,1 49431U 21104Z   24080.54813954  .00000510  00000-0  50124-4 0  9994,2 49431  53.2186 217.7004 0001760  87.5792 272.5401 15.08832435130061,6917.904,95.438,540.986,538.551,0.0
49431.0,STARLINK-3153,PAYLOAD,2024-03-20 16:20:05,15.08833495,0.0001628,53.2177,217.1064,83.7639,276.3539,6.6216e-05,7.66e-06,0.0,0 STARLINK-3153,1 49431U 21104Z   24080.68061901  .00000766  00000-0  66216-4 0  9998,2 49431  53.2177 217.1064 0001628  83.7639 276.3539 15.08833495130085,6917.9,95.438,540.892,538.639,0.0
49431.0,STARLINK-3153,PAYLOAD,2024-03-21 13:00:05,15.08837164,0.0001255,53.2179,213.2377,76.3152,283.798,0.00020357,2.953e-05,0.0,0 STARLINK-3153,1 49431U 21104Z   24081.54173517  .00002953  00000-0  20357-3 0  9996,2 49431  53.2179 213.2377 0001255  76.3152 283.7980 15.08837164131298,6917.889,95.438,540.622,538.886,0.0
49431.0,STARLINK-3153,PAYLOAD,2024-03-21 14:35:28,15.08848542,0.0001541,53.2169,212.9423,92.867,267.2499,0.00010937,1.453e-05,0.0,0 STARLINK-3153,1 49431U 21104Z   24081.60797070  .00001453  00000-0  10937-3 0  9996,2 49431  53.2169 212.9423 0001541  92.8670 267.2499 15.08848542130227,6917.854,95.437,540.785,538.653,0.0
49431.0,STARLINK-3153,PAYLOAD,2024-03-21 17:46:14,15.08855707,0.000154,53.2173,212.344,84.2576,275.8592,0.00018467,2.653e-05,0.0,0 STARLINK-3153,1 49431U 21104Z   24081.74044459  .00002653  00000-0  18467-3 0  9996,2 49431  53.2173 212.3440 0001540  84.2576 275.8592 15.08855707131326,6917.832,95.437,540.763,538.632,0.0
49431.0,STARLINK-3153,PAYLOAD,2024-03-22 12:50:52,15.08845834,0.0002026,53.2176,208.7776,63.0198,297.1001,0.00017731,2.535e-05,0.0,0 STARLINK-3153,1 49431U 21104Z   24082.53533189  .00002535  00000-0  17731-3 0  9999,2 49431  53.2176 208.7776 0002026  63.0198 297.1001 15.08845834131440,6917.863,95.437,541.129,538.326,0.0
49431.0,STARLINK-3153,PAYLOAD,2024-03-22 14:26:15,15.08847588,0.0001845,53.2177,208.4786,70.4314,289.6878,0.00020017,2.9e-05,0.0,0 STARLINK-3153,1 49431U 21104Z   24082.60156913  .00002900  00000-0  20017-3 0  9990,2 49431  53.2177 208.4786 0001845  70.4314 289.6878 15.08847588130376,6917.857,95.437,540.999,538.446,0.0
49431.0,STARLINK-3153,PAYLOAD,2024-03-22 17:37:01,15.08864725,0.0001493,53.2167,207.8857,82.7796,277.3366,0.00041654,6.352e-05,0.0,0 STARLINK-3153,1 49431U 21104Z   24082.73403954  .00006352  00000-0  41654-3 0  9999,2 49431  53.2167 207.8857 0001493  82.7796 277.3366 15.08864725131476,6917.805,95.436,540.703,538.637,0.0
